[{"OBJECT_NAME":"STARLINK-34802","OBJECT_ID":"2025-165M","EPOCH":"2026-03-09T17:13:32.863008","MEAN_MOTION":15.05652759,"ECCENTRICITY":6.401e-5,"INCLINATION":97.6015,"RA_OF_ASC_NODE":147.2402,"ARG_OF_PERICENTER":228.9415,"MEAN_ANOMALY":131.1756,"EPHEMERIS_TYPE":0,"CLASSIFICATION_TYPE":"U","NORAD_CAT_ID":65067,"ELEMENT_SET_NO":999,"REV_AT_EPOCH":3479,"BSTAR":0.00028862988,"MEAN_MOTION_DOT":4.107e-5,"MEAN_MOTION_DDOT":0},{"OBJECT_NAME":"PEGASUS DEB","OBJECT_ID":"1994-029AEZ","EPOCH":"2026-03-07T11:19:28.799040","MEAN_MOTION":14.72051152,"ECCENTRICITY":0.01604515,"INCLINATION":81.6595,"RA_OF_ASC_NODE":342.3991,"ARG_OF_PERICENTER":98.387,"MEAN_ANOMALY":263.5562,"EPHEMERIS_TYPE":0,"CLASSIFICATION_TYPE":"U","NORAD_CAT_ID":39314,"ELEMENT_SET_NO":999,"REV_AT_EPOCH":64575,"BSTAR":0.00096584038,"MEAN_MOTION_DOT":7.465e-5,"MEAN_MOTION_DDOT":0}]
